NORAD_CAT_ID,OBJECT_NAME,OBJECT_TYPE,EPOCH,MEAN_MOTION,ECCENTRICITY,INCLINATION,RA_OF_ASC_NODE,ARG_OF_PERICENTER,MEAN_ANOMALY,BSTAR,MEAN_MOTION_DOT,MEAN_MOTION_DDOT,TLE_LINE0,TLE_LINE1,TLE_LINE2,SEMIMAJOR_AXIS,PERIOD,APOGEE,PERIGEE,DECAYED
53417.0,STARLINK-4484,PAYLOAD,2023-01-24 08:45:11,15.088376,0.0002177999999999,53.2167,193.233,63.9927,296.1289,5.5748e-05,5.99e-06,0.0,0 STARLINK-4484,1 53417U 22097AF  23024.36471486  .00000599  00000-0  55748-4 0  9996,2 53417  53.2167 193.2330 0002178  63.9927 296.1289 15.08837600 26015,6917.888000000001,95.438,541.259,538.246,0.0
53417.0,STARLINK-4484,PAYLOAD,2023-01-25 10:11:21,15.08833894,0.000192,53.2174,188.4763,68.9225,291.1972,7.0308e-05,8.31e-06,0.0,0 STARLINK-4484,1 53417U 22097AF  23025.42455775  .00000831  00000-0  70308-4 0  9995,2 53417  53.2174 188.4763 0001920  68.9225 291.1972 15.08833894 26632,6917.899,95.438,541.092,538.436,0.0
53417.0,STARLINK-4484,PAYLOAD,2023-01-25 14:57:31,15.08840584,0.0002126,53.217,187.5835,66.054,294.0675,-5.8936000000000006e-05,-1.226e-05,0.0,0 STARLINK-4484,1 53417U 22097AF  23025.62327752 -.00001226  00000-0 -58936-4 0  9994,2 53417  53.2170 187.5835 0002126  66.0540 294.0675 15.08840584 26205,6917.879,95.438,541.214,538.273,0.0
53417.0,STARLINK-4484,PAYLOAD,2023-01-25 18:08:17,15.08847477,0.0002251,53.2174,186.9888,67.82600000000001,292.2971,-8.444700000000001e-05,-1.632e-05,0.0,0 STARLINK-4484,1 53417U 22097AF  23025.75575466 -.00001632  00000-0 -84447-4 0  9992,2 53417  53.2174 186.9888 0002251  67.8260 292.2971 15.08847477 26686,6917.858,95.437,541.28,538.165,0.0
53417.0,STARLINK-4484,PAYLOAD,2023-01-26 14:48:17,15.08841746,0.0002068,53.2175,183.123,72.3197,287.8021,6.8e-05,7.94e-06,0.0,0 STARLINK-4484,1 53417U 22097AF  23026.61687455  .00000794  00000-0  68000-4 0  9993,2 53417  53.2175 183.1230 0002068  72.3197 287.8021 15.08841746 26817,6917.875,95.437,541.1709999999999,538.309,0.0
53417.0,STARLINK-4484,PAYLOAD,2023-01-26 17:59:05,15.08801238,0.0002314,53.2174,182.5284,76.6545,283.4705,0.00069275,0.00010743,0.0,0 STARLINK-4484,1 53417U 22097AF  23026.74936616  .00010743  00000-0  69275-3 0  9992,2 53417  53.2174 182.5284 0002314  76.6545 283.4705 15.08801238 26370,6917.999,95.44,541.465,538.263,0.0
53417.0,STARLINK-4484,PAYLOAD,2023-01-27 14:39:05,15.08836653,0.0002045999999999,53.2173,178.662,73.4185,286.7032,6.2679e-05,7.09e-06,0.0,0 STARLINK-4484,1 53417U 22097AF  23027.61047821  .00000709  00000-0  62679-4 0  9993,2 53417  53.2173 178.6620 0002046  73.4185 286.7032 15.08836653 26509,6917.891,95.438,541.1709999999999,538.34,0.0
53417.0,STARLINK-4484,PAYLOAD,2023-01-27 16:14:28,15.08838366,0.0001972,53.2177,178.3642,73.2231,286.8977,2.9273e-05,1.78e-06,0.0,0 STARLINK-4484,1 53417U 22097AF  23027.67671781  .00000178  00000-0  29273-4 0  9990,2 53417  53.2177 178.3642 0001972  73.2231 286.8977 15.08838366 26974,6917.885,95.438,541.115,538.386,0.0
53417.0,STARLINK-4484,PAYLOAD,2023-01-28 03:22:09,15.08851395,0.0001819,53.2176,176.2819,84.801,275.319,0.00012478,1.699e-05,0.0,0 STARLINK-4484,1 53417U 22097AF  23028.14038365  .00001699  00000-0  12478-3 0  9995,2 53417  53.2176 176.2819 0001819  84.8010 275.3190 15.08851395 26583,6917.846,95.437,540.969,538.452,0.0
53417.0,STARLINK-4484,PAYLOAD,2023-01-28 12:54:29,15.0883176,0.0001815,53.2173,174.4996,79.8667,280.253,-5.0128e-05,-1.086e-05,0.0,0 STARLINK-4484,1 53417U 22097AF  23028.53784083 -.00001086  00000-0 -50128-4 0  9990,2 53417  53.2173 174.4996 0001815  79.8667 280.2530 15.08831760 26648,6917.906,95.438,541.026,538.515,0.0
53417.0,STARLINK-4484,PAYLOAD,2023-01-28 16:05:15,15.08837953,0.0001702,53.2175,173.9036,84.7104,275.4082,-5.6054e-05,-1.18e-05,0.0,0 STARLINK-4484,1 53417U 22097AF  23028.67031692 -.00001180  00000-0 -56054-4 0  9995,2 53417  53.2175 173.9036 0001702  84.7104 275.4082 15.08837953 27127,6917.887,95.438,540.929,538.574,0.0
53417.0,STARLINK-4484,PAYLOAD,2023-01-29 19:06:49,15.08799432,0.0001491,53.2175,168.8489,133.0464,227.0653,0.00055053,8.475e-05,0.0,0 STARLINK-4484,1 53417U 22097AF  23029.79640226  .00008475  00000-0  55053-3 0  9997,2 53417  53.2175 168.8489 0001491 133.0464 227.0653 15.08799432 26837,6918.004,95.44,540.901,538.838,0.0
53417.0,STARLINK-4484,PAYLOAD,2023-01-30 12:36:03,15.08853685,0.0001679,53.2178,165.5772,91.5527,268.5658,-0.00023753,-4.068e-05,0.0,0 STARLINK-4484,1 53417U 22097AF  23030.52503502 -.00004068  00000-0 -23753-3 0  9993,2 53417  53.2178 165.5772 0001679  91.5527 268.5658 15.08853685 26943,6917.839,95.437,540.865,538.542,0.0
53417.0,STARLINK-4484,PAYLOAD,2023-01-31 04:29:54,15.08839476,0.0001495,53.217,162.6049,104.4174,255.6984,1.7928e-05,-3e-08,0.0,0 STARLINK-4484,1 53417U 22097AF  23031.18744099 -.00000003  00000-0  17928-4 0  9996,2 53417  53.2170 162.6049 0001495 104.4174 255.6984 15.08839476 27041,6917.882,95.438,540.781,538.713,0.0
53417.0,STARLINK-4484,PAYLOAD,2023-01-31 12:26:50,15.08843133,0.0001384,53.2186,161.1185,76.6496,283.465,6.614e-05,7.65e-06,0.0,0 STARLINK-4484,1 53417U 22097AF  23031.51863810  .00000765  00000-0  66140-4 0  9990,2 53417  53.2186 161.1185 0001384  76.6496 283.4650 15.08843133 27557,6917.871,95.437,540.693,538.778,0.0
53417.0,STARLINK-4484,PAYLOAD,2023-02-01 10:42:13,15.08851132,9.37e-05,53.2189,156.9554,99.9448,260.165,5.6047e-05,6.05e-06,0.0,0 STARLINK-4484,1 53417U 22097AF  23032.44599276  .00000605  00000-0  56047-4 0  9993,2 53417  53.2189 156.9554 0000937  99.9448 260.1650 15.08851132 27235,6917.846,95.437,540.36,539.063,0.0
53417.0,STARLINK-4484,PAYLOAD,2023-02-01 12:17:37,15.08838888,0.0001334,53.2174,156.6592,95.5577,264.5567,3.6051e-05,2.86e-06,0.0,0 STARLINK-4484,1 53417U 22097AF  23032.51224159  .00000286  00000-0  36051-4 0  9994,2 53417  53.2174 156.6592 0001334  95.5577 264.5567 15.08838888 27705,6917.884,95.438,540.672,538.826,0.0
53417.0,STARLINK-4484,PAYLOAD,2023-02-02 12:08:25,15.08828544,0.0001015,53.2183,152.1977,104.1009,256.0096,-2.9047e-05,-7.5e-06,0.0,0 STARLINK-4484,1 53417U 22097AF  23033.50585022 -.00000750  00000-0 -29047-4 0  9998,2 53417  53.2183 152.1977 0001015 104.1009 256.0096 15.08828544 27853,6917.915,95.438,540.483,539.078,0.0
53417.0,STARLINK-4484,PAYLOAD,2023-02-02 16:54:34,15.0884021,0.0001186,53.2181,151.3051,88.744,271.3688,2.2066e-06,-2.53e-06,0.0,0 STARLINK-4484,1 53417U 22097AF  23033.70456353 -.00000253  00000-0  22066-5 0  9996,2 53417  53.2181 151.3051 0001186  88.7440 271.3688 15.08840210 27424,6917.88,95.438,540.565,538.924,0.0
53417.0,STARLINK-4484,PAYLOAD,2023-02-03 07:13:03,15.08830439,0.0001187,53.2174,148.6303,89.4805,270.6323,-1.3084e-05,-4.96e-06,0.0,0 STARLINK-4484,1 53417U 22097AF  23034.30073314 -.00000496  00000-0 -13084-4 0  9994,2 53417  53.2174 148.6303 0001187  89.4805 270.6323 15.08830439 27519,6917.91,95.438,540.596,538.953,0.0
53417.0,STARLINK-4484,PAYLOAD,2023-02-03 10:23:49,15.08832582,0.0001208,53.2174,148.0359,88.5148,271.5983,2.7254e-06,-2.44e-06,0.0,0 STARLINK-4484,1 53417U 22097AF  23034.43321200 -.00000244  00000-0  27254-5 0  9993,2 53417  53.2174 148.0359 0001208  88.5148 271.5983 15.08832582 27993,6917.903,95.438,540.604,538.932,0.0
53417.0,STARLINK-4484,PAYLOAD,2023-02-04 07:03:49,15.08832425,0.0001009,53.2177,144.1704,85.9157,274.195,0.00010526,1.388e-05,0.0,0 STARLINK-4484,1 53417U 22097AF  23035.29432836  .00001388  00000-0  10526-3 0  9997,2 53417  53.2177 144.1704 0001009  85.9157 274.1950 15.08832425 27660,6917.904,95.438,540.467,539.071,0.0
53417.0,STARLINK-4484,PAYLOAD,2023-02-04 13:25:21,15.08847456,0.0001137,53.2174,142.9808,81.6528,278.4593,0.00011638,1.565e-05,0.0,0 STARLINK-4484,1 53417U 22097AF  23035.55928049  .00001565  00000-0  11638-3 0  9994,2 53417  53.2174 142.9808 0001137  81.6528 278.4593 15.08847456 27700,6917.858,95.437,540.509,538.936,0.0
53417.0,STARLINK-4484,PAYLOAD,2023-02-04 16:36:07,15.08849986,0.0001074,53.2177,142.3835,109.2573,250.8535,0.00014673,2.049e-05,0.0,0 STARLINK-4484,1 53417U 22097AF  23035.69175570  .00002049  00000-0  14673-3 0  9992,2 53417  53.2177 142.3835 0001074 109.2573 250.8535 15.08849986 28187,6917.85,95.437,540.458,538.972,0.0
53417.0,STARLINK-4484,PAYLOAD,2023-02-05 00:33:04,15.08834459,0.0001279,53.2176,140.8996,85.2168,274.897,8.7279e-05,1.101e-05,0.0,0 STARLINK-4484,1 53417U 22097AF  23036.02296861  .00001101  00000-0  87279-4 0  9998,2 53417  53.2176 140.8996 0001279  85.2168 274.8970 15.08834459 27779,6917.897,95.438,540.647,538.878,0.0
53417.0,STARLINK-4484,PAYLOAD,2023-02-05 13:16:09,15.08842194,0.00012,53.2182,138.5184,109.8614,250.2508,7.8453e-06,-1.63e-06,0.0,0 STARLINK-4484,1 53417U 22097AF  23036.55288687 -.00000163  00000-0  78453-5 0  9996,2 53417  53.2182 138.5184 0001200 109.8614 250.2508 15.08842194 28313,6917.874,95.437,540.569,538.909,0.0
53417.0,STARLINK-4484,PAYLOAD,2023-02-05 16:26:55,15.08846763,9.83e-05,53.2189,137.926,101.93,258.1802,3.9838e-05,3.46e-06,0.0,0 STARLINK-4484,1 53417U 22097AF  23036.68536259  .00000346  00000-0  39838-4 0  9996,2 53417  53.2189 137.9260 0000983 101.9300 258.1802 15.08846763 27870,6917.86,95.437,540.405,539.045,0.0
53417.0,STARLINK-4484,PAYLOAD,2023-02-06 11:31:33,15.08840964,0.0001322,53.2194,134.3614,94.9083,265.206,6.9732e-05,8.22e-06,0.0,0 STARLINK-4484,1 53417U 22097AF  23037.48024662  .00000822  00000-0  69732-4 0  9990,2 53417  53.2194 134.3614 0001322  94.9083 265.2060 15.08840964 27992,6917.877,95.437,540.657,538.828,0.0
53417.0,STARLINK-4484,PAYLOAD,2023-02-06 16:17:41,15.08854157,0.000104,53.2175,133.4631,101.3038,258.8071,8.9806e-05,1.142e-05,0.0,0 STARLINK-4484,1 53417U 22097AF  23037.67895578  .00001142  00000-0  89806-4 0  9993,2 53417  53.2175 133.4631 0001040 101.3038 258.8071 15.08854157 28024,6917.837,95.437,540.422,538.983,0.0
53417.0,STARLINK-4484,PAYLOAD,2023-02-07 06:36:10,15.0883921,0.000132,53.2188,130.7895,102.3515,257.7625,9.1887e-05,1.175e-05,0.0,0 STARLINK-4484,1 53417U 22097AF  23038.27512538  .00001175  00000-0  91887-4 0  9990,2 53417  53.2188 130.7895 0001320 102.3515 257.7625 15.08839210 28118,6917.883,95.438,540.661,538.835,0.0
